{
  "type": "FeatureCollection",
  "features": [
    {
      "type": "Feature",
      "geometry": {
        "type": "Polygon",
        "coordinates": [
          [
            [
              72.91,
              19.11
            ],
            [
              72.95,
              19.11
            ],
            [
              72.95,
              19.15
            ],
            [
              72.91,
              19.15
            ],
            [
              72.91,
              19.11
            ]
          ]
        ]
      },
      "properties": {
        "land_cover": "steep_barren_slope",
        "runoff_factor": 0.9
      }
    },
    {
      "type": "Feature",
      "geometry": {
        "type": "Polygon",
        "coordinates": [
          [
            [
              72.85,
              19.08
            ],
            [
              72.9,
              19.08
            ],
            [
              72.9,
              19.13
            ],
            [
              72.85,
              19.13
            ],
            [
              72.85,
              19.08
            ]
          ]
        ]
      },
      "properties": {
        "land_cover": "dense_forest",
        "runoff_factor": 0.25
      }
    }
  ]
}